start=new Date('2023-04-26T00:00:00.000Z').valueOf();
sats=[{"CENTER_NAME":"EARTH","TLE_LINE2":"2 54778  53.2187  60.1567 0001178 105.9044 254.2078 15.08854194 21707","EPHEMERIS_TYPE":"0","CLASSIFICATION_TYPE":"U","MEAN_ELEMENT_THEORY":"SGP4","SITE":"AFETR","COUNTRY_CODE":"US","REF_FRAME":"TEME","DECAY_DATE":null,"REV_AT_EPOCH":"2170","NORAD_CAT_ID":"54778","ECCENTRICITY":"0.00011780","BSTAR":"0.00005706600000","GP_ID":"230744615","MEAN_MOTION_DDOT":"0.0000000000000","INCLINATION":"53.2187","RCS_SIZE":"LARGE","OBJECT_ID":"2022-175W","OBJECT_TYPE":"PAYLOAD","PERIAPSIS":"538.887","LAUNCH_DATE":"2022-12-17","ARG_OF_PERICENTER":"105.9044","MEAN_MOTION":"15.08854194","OBJECT_NAME":"STARLINK-5450","ELEMENT_SET_NO":"999","TLE_LINE1":"1 54778U 22175W   23115.28149421  .00000621  00000-0  57066-4 0  9998","FILE":"3894092","SEMIMAJOR_AXIS":"6917.837","MEAN_ANOMALY":"254.2078","PERIOD":"95.437","APOAPSIS":"540.517","RA_OF_ASC_NODE":"60.1567","TIME_SYSTEM":"UTC","MEAN_MOTION_DOT":"0.00000621","EPOCH":"2023-04-25T06:45:21.099744"},{"REV_AT_EPOCH":"2170","NORAD_CAT_ID":"54779","BSTAR":"0.00053442000000","ECCENTRICITY":"0.00013500","TLE_LINE2":"2 54779  53.2188  60.1839 0001350  97.6810 262.4335 15.08873685 21704","CENTER_NAME":"EARTH","EPHEMERIS_TYPE":"0","CLASSIFICATION_TYPE":"U","MEAN_ELEMENT_THEORY":"SGP4","SITE":"AFETR","COUNTRY_CODE":"US","DECAY_DATE":null,"REF_FRAME":"TEME","PERIAPSIS":"538.709","LAUNCH_DATE":"2022-12-17","ARG_OF_PERICENTER":"97.6810","GP_ID":"230745867","MEAN_MOTION_DDOT":"0.0000000000000","INCLINATION":"53.2188","OBJECT_ID":"2022-175X","RCS_SIZE":"LARGE","OBJECT_TYPE":"PAYLOAD","FILE":"3894092","MEAN_MOTION":"15.08873685","ELEMENT_SET_NO":"999","OBJECT_NAME":"STARLINK-5447","TLE_LINE1":"1 54779U 22175X   23115.28517889  .00008235  00000-0  53442-3 0  9998","TIME_SYSTEM":"UTC","MEAN_MOTION_DOT":"0.00008235","EPOCH":"2023-04-25T06:50:39.456096","SEMIMAJOR_AXIS":"6917.777","MEAN_ANOMALY":"262.4335","PERIOD":"95.435","APOAPSIS":"540.576","RA_OF_ASC_NODE":"60.1839"},{"PERIAPSIS":"538.655","ARG_OF_PERICENTER":"113.8385","LAUNCH_DATE":"2022-12-17","GP_ID":"230707629","MEAN_MOTION_DDOT":"0.0000000000000","INCLINATION":"53.2197","OBJECT_TYPE":"PAYLOAD","OBJECT_ID":"2022-175Y","RCS_SIZE":"LARGE","REV_AT_EPOCH":"1952","NORAD_CAT_ID":"54780","BSTAR":"0.00001801100000","ECCENTRICITY":"0.00015180","CLASSIFICATION_TYPE":"U","MEAN_ELEMENT_THEORY":"SGP4","EPHEMERIS_TYPE":"0","CENTER_NAME":"EARTH","TLE_LINE2":"2 54780  53.2197  60.6509 0001518 113.8385 246.2766 15.08853258 19528","SITE":"AFETR","REF_FRAME":"TEME","DECAY_DATE":null,"COUNTRY_CODE":"US","MEAN_MOTION_DOT":"-0.00000001","TIME_SYSTEM":"UTC","EPOCH":"2023-04-25T03:13:21.788544","PERIOD":"95.437","MEAN_ANOMALY":"246.2766","SEMIMAJOR_AXIS":"6917.840","APOAPSIS":"540.755","RA_OF_ASC_NODE":"60.6509","FILE":"3893590","MEAN_MOTION":"15.08853258","TLE_LINE1":"1 54780U 22175Y   23115.13427996 -.00000001  00000-0  18011-4 0  9991","ELEMENT_SET_NO":"999","OBJECT_NAME":"STARLINK-5449"},{"BSTAR":"0.00025514000000","ECCENTRICITY":"0.00013560","REV_AT_EPOCH":"2170","NORAD_CAT_ID":"54781","DECAY_DATE":null,"REF_FRAME":"TEME","COUNTRY_CODE":"US","MEAN_ELEMENT_THEORY":"SGP4","CLASSIFICATION_TYPE":"U","EPHEMERIS_TYPE":"0","TLE_LINE2":"2 54781  53.2187  59.9754 0001356 101.3830 258.7314 15.07232747 21701","CENTER_NAME":"EARTH","SITE":"AFETR","PERIAPSIS":"543.724","ARG_OF_PERICENTER":"101.3830","LAUNCH_DATE":"2022-12-17","INCLINATION":"53.2187","OBJECT_TYPE":"PAYLOAD","OBJECT_ID":"2022-175Z","RCS_SIZE":"LARGE","GP_ID":"230744365","MEAN_MOTION_DDOT":"0.0000000000000","FILE":"3894092","TLE_LINE1":"1 54781U 22175Z   23115.25284979  .00003605  00000-0  25514-3 0  9994","OBJECT_NAME":"STARLINK-5443","ELEMENT_SET_NO":"999","MEAN_MOTION":"15.07232747","EPOCH":"2023-04-25T06:04:06.221856","MEAN_MOTION_DOT":"0.00003605","TIME_SYSTEM":"UTC","RA_OF_ASC_NODE":"59.9754","PERIOD":"95.539","SEMIMAJOR_AXIS":"6922.797","MEAN_ANOMALY":"258.7314","APOAPSIS":"545.601"},{"RA_OF_ASC_NODE":"31.6005","APOAPSIS":"438.720","PERIOD":"93.337","MEAN_ANOMALY":"149.0727","SEMIMAJOR_AXIS":"6816.013","EPOCH":"2023-04-25T14:00:01.999872","MEAN_MOTION_DOT":"-0.00565391","TIME_SYSTEM":"UTC","TLE_LINE1":"1 54782U 22175AA  23115.58335648 -.00565391  00000-0 -13673-1 0  9999","ELEMENT_SET_NO":"999","OBJECT_NAME":"STARLINK-5437","MEAN_MOTION":"15.42791186","FILE":"3894092","OBJECT_TYPE":"PAYLOAD","OBJECT_ID":"2022-175AA","RCS_SIZE":"LARGE","INCLINATION":"53.2157","MEAN_MOTION_DDOT":"0.0000000000000","GP_ID":"230745116","ARG_OF_PERICENTER":"93.2572","LAUNCH_DATE":"2022-12-17","PERIAPSIS":"437.036","REF_FRAME":"TEME","DECAY_DATE":null,"COUNTRY_CODE":"US","SITE":"AFETR","CLASSIFICATION_TYPE":"U","EPHEMERIS_TYPE":"0","MEAN_ELEMENT_THEORY":"SGP4","CENTER_NAME":"EARTH","TLE_LINE2":"2 54782  53.2157  31.6005 0001235  93.2572 149.0727 15.42791186  1303","ECCENTRICITY":"0.00012350","BSTAR":"-0.01367300000000","NORAD_CAT_ID":"54782","REV_AT_EPOCH":"130"},{"MEAN_MOTION_DOT":"0.00002073","TIME_SYSTEM":"UTC","EPOCH":"2023-04-25T06:34:43.898880","PERIOD":"95.436","MEAN_ANOMALY":"270.3403","SEMIMAJOR_AXIS":"6917.816","APOAPSIS":"540.583","RA_OF_ASC_NODE":"60.1080","FILE":"3894092","MEAN_MOTION":"15.08860971","TLE_LINE1":"1 54783U 22175AB  23115.27411920  .00002073  00000-0  14821-3 0  9993","ELEMENT_SET_NO":"999","OBJECT_NAME":"STARLINK-5439","PERIAPSIS":"538.779","ARG_OF_PERICENTER":"89.7739","LAUNCH_DATE":"2022-12-17","GP_ID":"230745367","MEAN_MOTION_DDOT":"0.0000000000000","INCLINATION":"53.2186","OBJECT_TYPE":"PAYLOAD","OBJECT_ID":"2022-175AB","RCS_SIZE":"LARGE","REV_AT_EPOCH":"2170","NORAD_CAT_ID":"54783","BSTAR":"0.00014821000000","ECCENTRICITY":"0.00013040","CLASSIFICATION_TYPE":"U","EPHEMERIS_TYPE":"0","MEAN_ELEMENT_THEORY":"SGP4","CENTER_NAME":"EARTH","TLE_LINE2":"2 54783  53.2186  60.1080 0001304  89.7739 270.3403 15.08860971 21704","SITE":"AFETR","REF_FRAME":"TEME","DECAY_DATE":null,"COUNTRY_CODE":"US"},{"APOAPSIS":"540.506","SEMIMAJOR_AXIS":"6917.863","MEAN_ANOMALY":"271.9654","PERIOD":"95.437","RA_OF_ASC_NODE":"74.9645","TIME_SYSTEM":"UTC","MEAN_MOTION_DOT":"0.00000739","EPOCH":"2023-04-25T06:08:53.099232","MEAN_MOTION":"15.08845787","ELEMENT_SET_NO":"999","OBJECT_NAME":"STARLINK-5442","TLE_LINE1":"1 54784U 22175AC  23115.25617013  .00000739  00000-0  64476-4 0  9992","FILE":"3894092","MEAN_MOTION_DDOT":"0.0000000000000","GP_ID":"230746118","OBJECT_ID":"2022-175AC","RCS_SIZE":"LARGE","OBJECT_TYPE":"PAYLOAD","INCLINATION":"53.2184","LAUNCH_DATE":"2022-12-17","ARG_OF_PERICENTER":"88.1467","PERIAPSIS":"538.949","SITE":"AFETR","TLE_LINE2":"2 54784  53.2184  74.9645 0001125  88.1467 271.9654 15.08845787 21494","CENTER_NAME":"EARTH","CLASSIFICATION_TYPE":"U","MEAN_ELEMENT_THEORY":"SGP4","EPHEMERIS_TYPE":"0","COUNTRY_CODE":"US","REF_FRAME":"TEME","DECAY_DATE":null,"NORAD_CAT_ID":"54784","REV_AT_EPOCH":"2149","BSTAR":"0.00006447600000","ECCENTRICITY":"0.00011250"},{"PERIOD":"92.086","MEAN_ANOMALY":"148.1506","SEMIMAJOR_AXIS":"6754.958","APOAPSIS":"377.495","RA_OF_ASC_NODE":"28.6806","MEAN_MOTION_DOT":"-0.00047358","TIME_SYSTEM":"UTC","EPOCH":"2023-04-25T14:00:01.999872","MEAN_MOTION":"15.63755195","TLE_LINE1":"1 54785U 22175AD  23115.58335648 -.00047358  00000-0 -49456-3 0  9990","OBJECT_NAME":"STARLINK-5440","ELEMENT_SET_NO":"999","FILE":"3893911","GP_ID":"230715591","MEAN_MOTION_DDOT":"0.0000000000000","INCLINATION":"53.2152","OBJECT_TYPE":"PAYLOAD","RCS_SIZE":"LARGE","OBJECT_ID":"2022-175AD","PERIAPSIS":"376.151","ARG_OF_PERICENTER":"101.1740","LAUNCH_DATE":"2022-12-17","MEAN_ELEMENT_THEORY":"SGP4","EPHEMERIS_TYPE":"0","CLASSIFICATION_TYPE":"U","CENTER_NAME":"EARTH","TLE_LINE2":"2 54785  53.2152  28.6806 0000995 101.1740 148.1506 15.63755195 20000","SITE":"AFETR","REF_FRAME":"TEME","DECAY_DATE":null,"COUNTRY_CODE":"US","REV_AT_EPOCH":"2000","NORAD_CAT_ID":"54785","ECCENTRICITY":"0.00009950","BSTAR":"-0.00049456000000"},{"FILE":"3894092","OBJECT_NAME":"STARLINK-5438","ELEMENT_SET_NO":"999","TLE_LINE1":"1 54786U 22175AE  23115.26771021  .00001817  00000-0  13216-3 0  9998","MEAN_MOTION":"15.08853873","EPOCH":"2023-04-25T06:25:30.162144","TIME_SYSTEM":"UTC","MEAN_MOTION_DOT":"0.00001817","RA_OF_ASC_NODE":"60.0668","SEMIMAJOR_AXIS":"6917.838","MEAN_ANOMALY":"252.6736","PERIOD":"95.437","APOAPSIS":"540.664","BSTAR":"0.00013216000000","ECCENTRICITY":"0.00013890","REV_AT_EPOCH":"2170","NORAD_CAT_ID":"54786","COUNTRY_CODE":"US","DECAY_DATE":null,"REF_FRAME":"TEME","CENTER_NAME":"EARTH","TLE_LINE2":"2 54786  53.2194  60.0668 0001389 107.4409 252.6736 15.08853873 21707","MEAN_ELEMENT_THEORY":"SGP4","CLASSIFICATION_TYPE":"U","EPHEMERIS_TYPE":"0","SITE":"AFETR","PERIAPSIS":"538.742","LAUNCH_DATE":"2022-12-17","ARG_OF_PERICENTER":"107.4409","INCLINATION":"53.2194","OBJECT_ID":"2022-175AE","RCS_SIZE":"LARGE","OBJECT_TYPE":"PAYLOAD","GP_ID":"230744616","MEAN_MOTION_DDOT":"0.0000000000000"},{"SITE":"AFETR","CENTER_NAME":"EARTH","TLE_LINE2":"2 54787  53.2189  75.2406 0001244 103.9828 256.1302 15.08856494 19321","MEAN_ELEMENT_THEORY":"SGP4","CLASSIFICATION_TYPE":"U","EPHEMERIS_TYPE":"0","COUNTRY_CODE":"US","DECAY_DATE":null,"REF_FRAME":"TEME","NORAD_CAT_ID":"54787","REV_AT_EPOCH":"1932","BSTAR":"0.00025660000000","ECCENTRICITY":"0.00012440","MEAN_MOTION_DDOT":"0.0000000000000","GP_ID":"230707874","OBJECT_ID":"2022-175AF","RCS_SIZE":"LARGE","OBJECT_TYPE":"PAYLOAD","INCLINATION":"53.2189","LAUNCH_DATE":"2022-12-17","ARG_OF_PERICENTER":"103.9828","PERIAPSIS":"538.834","MEAN_MOTION":"15.08856494","ELEMENT_SET_NO":"999","OBJECT_NAME":"STARLINK-5441","TLE_LINE1":"1 54787U 22175AF  23115.18624063  .00003800  00000-0  25660-3 0  9993","FILE":"3893606","APOAPSIS":"540.556","MEAN_ANOMALY":"256.1302","SEMIMAJOR_AXIS":"6917.830","PERIOD":"95.437","RA_OF_ASC_NODE":"75.2406","TIME_SYSTEM":"UTC","MEAN_MOTION_DOT":"0.00003800","EPOCH":"2023-04-25T04:28:11.190432"}];
